CCSDS_OMM_VERS = 2.0
CREATION_DATE  = 
ORIGINATOR     = 

OBJECT_NAME    = ISS OBJECT XW
OBJECT_ID      = 1998-067XW
CENTER_NAME    = EARTH
REF_FRAME      = TEME
TIME_SYSTEM    = UTC
MEAN_ELEMENT_THEORY = SGP/SGP4

EPOCH          = 2026-02-20T12:58:55.103520
MEAN_MOTION    = 15.64112726
ECCENTRICITY   = .00034906
INCLINATION    = 51.6261
RA_OF_ASC_NODE = 152.6363
ARG_OF_PERICENTER = 2.9976
MEAN_ANOMALY   = 357.1039

EPHEMERIS_TYPE = 0
CLASSIFICATION_TYPE = U
NORAD_CAT_ID   = 66910
ELEMENT_SET_NO = 999
REV_AT_EPOCH   = 1249
BSTAR          = .10924914E-2
MEAN_MOTION_DOT = .106533E-2
MEAN_MOTION_DDOT = 0

CCSDS_OMM_VERS = 2.0
CREATION_DATE  = 
ORIGINATOR     = 

OBJECT_NAME    = ISS OBJECT XX
OBJECT_ID      = 1998-067XX
CENTER_NAME    = EARTH
REF_FRAME      = TEME
TIME_SYSTEM    = UTC
MEAN_ELEMENT_THEORY = SGP/SGP4

EPOCH          = 2026-02-20T12:50:13.612992
MEAN_MOTION    = 15.67978124
ECCENTRICITY   = .00054069
INCLINATION    = 51.6245
RA_OF_ASC_NODE = 151.8410
ARG_OF_PERICENTER = 355.4162
MEAN_ANOMALY   = 4.6783

EPHEMERIS_TYPE = 0
CLASSIFICATION_TYPE = U
NORAD_CAT_ID   = 66911
ELEMENT_SET_NO = 999
REV_AT_EPOCH   = 1249
BSTAR          = .13502152E-2
MEAN_MOTION_DOT = .154962E-2
MEAN_MOTION_DDOT = 0

CCSDS_OMM_VERS = 2.0
CREATION_DATE  = 
ORIGINATOR     = 

OBJECT_NAME    = ISS OBJECT XY
OBJECT_ID      = 1998-067XY
CENTER_NAME    = EARTH
REF_FRAME      = TEME
TIME_SYSTEM    = UTC
MEAN_ELEMENT_THEORY = SGP/SGP4

EPOCH          = 2026-02-20T07:22:54.506784
MEAN_MOTION    = 15.60538174
ECCENTRICITY   = .0001593
INCLINATION    = 51.6292
RA_OF_ASC_NODE = 154.8409
ARG_OF_PERICENTER = 7.5463
MEAN_ANOMALY   = 352.5554

EPHEMERIS_TYPE = 0
CLASSIFICATION_TYPE = U
NORAD_CAT_ID   = 66912
ELEMENT_SET_NO = 999
REV_AT_EPOCH   = 1243
BSTAR          = .72543E-3
MEAN_MOTION_DOT = .60985E-3
MEAN_MOTION_DDOT = 0

CCSDS_OMM_VERS = 2.0
CREATION_DATE  = 
ORIGINATOR     = 

OBJECT_NAME    = ISS OBJECT XZ
OBJECT_ID      = 1998-067XZ
CENTER_NAME    = EARTH
REF_FRAME      = TEME
TIME_SYSTEM    = UTC
MEAN_ELEMENT_THEORY = SGP/SGP4

EPOCH          = 2026-02-20T14:09:05.982048
MEAN_MOTION    = 15.50393138
ECCENTRICITY   = .00101386
INCLINATION    = 51.6317
RA_OF_ASC_NODE = 156.7216
ARG_OF_PERICENTER = 129.0242
MEAN_ANOMALY   = 231.1651

EPHEMERIS_TYPE = 0
CLASSIFICATION_TYPE = U
NORAD_CAT_ID   = 67683
ELEMENT_SET_NO = 999
REV_AT_EPOCH   = 213
BSTAR          = .59746411E-3
MEAN_MOTION_DOT = .34329E-3
MEAN_MOTION_DDOT = 0

CCSDS_OMM_VERS = 2.0
CREATION_DATE  = 
ORIGINATOR     = 

OBJECT_NAME    = GXIBA-1
OBJECT_ID      = 1998-067YA
CENTER_NAME    = EARTH
REF_FRAME      = TEME
TIME_SYSTEM    = UTC
MEAN_ELEMENT_THEORY = SGP/SGP4

EPOCH          = 2026-02-20T13:58:26.230656
MEAN_MOTION    = 15.51598585
ECCENTRICITY   = .0011811
INCLINATION    = 51.6312
RA_OF_ASC_NODE = 156.6723
ARG_OF_PERICENTER = 122.4211
MEAN_ANOMALY   = 237.7923

EPHEMERIS_TYPE = 0
CLASSIFICATION_TYPE = U
NORAD_CAT_ID   = 67684
ELEMENT_SET_NO = 999
REV_AT_EPOCH   = 213
BSTAR          = .10470195E-2
MEAN_MOTION_DOT = .63461E-3
MEAN_MOTION_DDOT = 0

CCSDS_OMM_VERS = 2.0
CREATION_DATE  = 
ORIGINATOR     = 

OBJECT_NAME    = CORAL
OBJECT_ID      = 1998-067YB
CENTER_NAME    = EARTH
REF_FRAME      = TEME
TIME_SYSTEM    = UTC
MEAN_ELEMENT_THEORY = SGP/SGP4

EPOCH          = 2026-02-20T17:12:43.666848
MEAN_MOTION    = 15.50604637
ECCENTRICITY   = .00120663
INCLINATION    = 51.6311
RA_OF_ASC_NODE = 156.0725
ARG_OF_PERICENTER = 125.8879
MEAN_ANOMALY   = 234.3232

EPHEMERIS_TYPE = 0
CLASSIFICATION_TYPE = U
NORAD_CAT_ID   = 67685
ELEMENT_SET_NO = 999
REV_AT_EPOCH   = 215
BSTAR          = .64315753E-3
MEAN_MOTION_DOT = .37317E-3
MEAN_MOTION_DDOT = 0

CCSDS_OMM_VERS = 2.0
CREATION_DATE  = 
ORIGINATOR     = 

OBJECT_NAME    = ISS OBJECT YC
OBJECT_ID      = 1998-067YC
CENTER_NAME    = EARTH
REF_FRAME      = TEME
TIME_SYSTEM    = UTC
MEAN_ELEMENT_THEORY = SGP/SGP4

EPOCH          = 2026-02-20T14:05:07.571616
MEAN_MOTION    = 15.50839281
ECCENTRICITY   = .00077448
INCLINATION    = 51.6318
RA_OF_ASC_NODE = 156.7029
ARG_OF_PERICENTER = 97.2431
MEAN_ANOMALY   = 262.9439

EPHEMERIS_TYPE = 0
CLASSIFICATION_TYPE = U
NORAD_CAT_ID   = 67686
ELEMENT_SET_NO = 999
REV_AT_EPOCH   = 213
BSTAR          = .7521956E-3
MEAN_MOTION_DOT = .44056E-3
MEAN_MOTION_DDOT = 0

CCSDS_OMM_VERS = 2.0
CREATION_DATE  = 
ORIGINATOR     = 

OBJECT_NAME    = LEOPARD
OBJECT_ID      = 1998-067YD
CENTER_NAME    = EARTH
REF_FRAME      = TEME
TIME_SYSTEM    = UTC
MEAN_ELEMENT_THEORY = SGP/SGP4

EPOCH          = 2026-02-21T04:03:13.709952
MEAN_MOTION    = 15.50554039
ECCENTRICITY   = .0007815
INCLINATION    = 51.6315
RA_OF_ASC_NODE = 153.8399
ARG_OF_PERICENTER = 101.7061
MEAN_ANOMALY   = 258.4805

EPHEMERIS_TYPE = 0
CLASSIFICATION_TYPE = U
NORAD_CAT_ID   = 67687
ELEMENT_SET_NO = 999
REV_AT_EPOCH   = 214
BSTAR          = .64212E-3
MEAN_MOTION_DOT = .37127E-3
MEAN_MOTION_DDOT = 0

CCSDS_OMM_VERS = 2.0
CREATION_DATE  = 
ORIGINATOR     = 

OBJECT_NAME    = ISS OBJECT YE
OBJECT_ID      = 1998-067YE
CENTER_NAME    = EARTH
REF_FRAME      = TEME
TIME_SYSTEM    = UTC
MEAN_ELEMENT_THEORY = SGP/SGP4

EPOCH          = 2026-02-20T14:05:56.023872
MEAN_MOTION    = 15.50727857
ECCENTRICITY   = .00077313
INCLINATION    = 51.6326
RA_OF_ASC_NODE = 156.7077
ARG_OF_PERICENTER = 98.0335
MEAN_ANOMALY   = 262.1532

EPHEMERIS_TYPE = 0
CLASSIFICATION_TYPE = U
NORAD_CAT_ID   = 67688
ELEMENT_SET_NO = 999
REV_AT_EPOCH   = 205
BSTAR          = .69449156E-3
MEAN_MOTION_DOT = .4046E-3
MEAN_MOTION_DDOT = 0

CCSDS_OMM_VERS = 2.0
CREATION_DATE  = 
ORIGINATOR     = 

OBJECT_NAME    = CREW DRAGON 12
OBJECT_ID      = 2026-031A
CENTER_NAME    = EARTH
REF_FRAME      = TEME
TIME_SYSTEM    = UTC
MEAN_ELEMENT_THEORY = SGP/SGP4

EPOCH          = 2026-02-20T19:07:45.802560
MEAN_MOTION    = 15.48167199
ECCENTRICITY   = .00085713
INCLINATION    = 51.6323
RA_OF_ASC_NODE = 155.8543
ARG_OF_PERICENTER = 116.6604
MEAN_ANOMALY   = 243.5263

EPHEMERIS_TYPE = 0
CLASSIFICATION_TYPE = U
NORAD_CAT_ID   = 67796
ELEMENT_SET_NO = 999
REV_AT_EPOCH   = 55368
BSTAR          = .18779765E-3
MEAN_MOTION_DOT = .9624E-4
MEAN_MOTION_DDOT = 0

