ISS OBJECT XW           
1 66910U 98067XW  26051.54091555  .00106533  00000+0  10925-2 0  9996
2 66910  51.6261 152.6363 0003490   2.9976 357.1039 15.64112726 12499
ISS OBJECT XX           
1 66911U 98067XX  26051.53487978  .00154962  00000+0  13502-2 0  9997
2 66911  51.6245 151.8410 0005406 355.4162   4.6783 15.67978124 12493
ISS OBJECT XY           
1 66912U 98067XY  26051.30757531  .00060985  00000+0  72543-3 0  9990
2 66912  51.6292 154.8409 0001593   7.5463 352.5554 15.60538174 12434
ISS OBJECT XZ           
1 67683U 98067XZ  26051.58965257  .00034329  00000+0  59746-3 0  9995
2 67683  51.6317 156.7216 0010138 129.0242 231.1651 15.50393138  2139
GXIBA-1                 
1 67684U 98067YA  26051.58224804  .00063461  00000+0  10470-2 0  9991
2 67684  51.6312 156.6723 0011811 122.4211 237.7923 15.51598585  2137
CORAL                   
1 67685U 98067YB  26051.71717207  .00037317  00000+0  64316-3 0  9991
2 67685  51.6311 156.0725 0012066 125.8879 234.3232 15.50604637  2156
ISS OBJECT YC           
1 67686U 98067YC  26051.58689319  .00044056  00000+0  75220-3 0  9993
2 67686  51.6318 156.7029 0007744  97.2431 262.9439 15.50839281  2130
LEOPARD                 
1 67687U 98067YD  26052.16890868  .00037127  00000+0  64212-3 0  9992
2 67687  51.6315 153.8399 0007815 101.7061 258.4805 15.50554039  2148
ISS OBJECT YE           
1 67688U 98067YE  26051.58745398  .00040460  00000+0  69449-3 0  9996
2 67688  51.6326 156.7077 0007731  98.0335 262.1532 15.50727857  2054
CREW DRAGON 12          
1 67796U 26031A   26051.79705790  .00009624  00000+0  18780-3 0  9992
2 67796  51.6323 155.8543 0008571 116.6604 243.5263 15.48167199553686
